1 20253U 89077A   26197.29478979 -.00000380  00000-0  00000+0 0  9994
2 20253  12.4133 350.9841 0003279  72.2869 102.4119  1.00262429260858
1 20776U 90079A   26197.57780588 -.00000201  00000-0  00000+0 0  9993
2 20776  13.3287 349.6290 0002802 133.1359 202.2719  0.98579414   323
1 22787U 93056A   26197.13295105  .00000112  00000-0  00000-0 0  9994
2 22787  11.9049   3.3905 0002423   7.5787 359.4757  1.00270885118840
1 23467U 95003A   26197.73174507 -.00000033  00000-0  00000+0 0  9994
2 23467   9.6773  13.0039 0003114 102.5913 254.7918  1.00276602115245
1 23967U 96042A   26197.83007617 -.00000313  00000-0  00000+0 0  9992
2 23967  11.1447  16.9142 0006521 116.7239  48.3158  1.00202790109788
1 25544U 98067A   26197.86314870  .00003748  00000-0  76099-4 0  9999
2 25544  51.6311 153.2312 0006736 304.1301  55.9047 15.49027546576359
1 25967U 99063A   26197.84559152 -.00000201  00000-0  00000+0 0  9993
2 25967   9.8571  27.0495 0001675 123.7182  65.3754  1.00272333 97648
1 27168U 02001A   26197.73936396  .00000084  00000-0  00000+0 0  9999
2 27168  11.2142  21.7231 0099289   8.9863 189.0440  1.00266982 33257
1 27607U 02058C   26197.69007697  .00000351  00000-0  59565-4 0  9999
2 27607  64.5519  37.6997 0074486 256.9971 102.2811 14.83099959268832
1 28117U 03057A   26197.68239296 -.00000117  00000-0  00000+0 0  9993
2 28117   8.9494  33.6618 0002767  97.3006 124.7767  1.00270678 82745
1 28899U 05044A   26197.79735902 -.00000273  00000-0  00000+0 0  9998
2 28899   5.1335  43.6660 0002768  63.5999 257.8943  1.00270515 75814
1 30794U 07007B   26197.85233477 -.00000283  00000-0  00000+0 0  9994
2 30794   5.3729  73.3769 0003692  47.5203 215.8041  1.00268742 70993
1 32294U 07056B   26197.81780765  .00000127  00000-0  00000+0 0  9994
2 32294   5.3245  73.1473 0003721  45.6808 135.3550  1.00275449 68491
1 35943U 09054B   26197.85265168  .00000015  00000-0  00000+0 0  9993
2 35943   0.0642 168.3385 0002713 307.8154 188.4854  1.00270420 61600
1 36582U 10021B   26197.55766398  .00000079  00000-0  00000+0 0  9997
2 36582   0.0464 188.3656 0002422 307.3903  12.6485  1.00275967 59256
1 38098U 12011A   26197.85447169 -.00000069  00000-0  00000+0 0  9997
2 38098   0.0164  50.7483 0001846  75.2376 188.4007  1.00271898  7480
1 39034U 12075A   26197.81017090  .00000089  00000-0  00000+0 0  9991
2 39034   0.0679   1.5949 0003462 122.9352 154.5049  1.00270948 49451
1 39215U 13038A   26197.81780765  .00000123  00000-0  00000+0 0  9997
2 39215   2.9997   1.1562 0002212 136.4107 116.3504  1.00270499 44316
1 40296U 14069A   26197.09826432  .00000265  00000-0  00000+0 0  9992
2 40296  63.4495 212.5044 6637947 270.3756  19.8374  2.00597902 85812
1 40931U 15052B   25151.18580782  .00001310  00000-0  87238-4 0  9990
2 40931   6.0001  24.1284 0012872 339.0660  20.8941 14.78806187523042
1 43678U 18084H   26197.84468619  .00001039  00000-0  87453-4 0  9994
2 43678  98.1211  35.3517 0012743  79.3349 280.9308 15.00567033420666
1 43700U 18090A   26197.81780765  .00000134  00000-0  00000+0 0  9996
2 43700   0.0155  59.1855 0002282  99.7063  95.9377  1.00271843 27979
1 43803U 18099AX  26197.64319472  .00010209  00000-0  30710-3 0  9992
2 43803  97.4110 260.5958 0006980 153.8178 206.3419 15.34548911418147
1 44453U 19046A   26197.13163642 -.00000027  00000-0  00000+0 0  9990
2 44453  63.1541  47.0135 7082201 274.9394  14.5884  2.00596454 50921
1 44909U 19096E   26197.40108337  .00000014  00000-0  25258-5 0  9994
2 44909  82.5242 320.2932 0218525  76.1855 286.3458 12.79748917306085
1 45254U 20015A   26197.38019450 -.00000047  00000-0  00000+0 0  9994
2 45254  65.5364 315.8950 6849056 277.4072  15.6857  2.00607542 46872
1 52145U 22030A   26197.37961299  .00000133  00000-0  00000+0 0  9991
2 52145  62.6770 137.6440 6792223 272.8415  17.5982  2.00609217 31612
1 57167U 23091B   26010.59363612  .08733485  25619-5  12458-2 0  9993
2 57167  97.4978  91.1570 0009532 282.8011  77.2220 16.34765267141469
1 59112U 24043Q   26197.39148124  .00025973  00000-0  31139-3 0  9994
2 59112  97.5560 349.6331 0006825 102.5027 257.6993 15.60890345132445
1 67291U 25313AV  26197.18480657  .00006742  00000-0  25706-3 0  9995
2 67291  97.3921 272.1056 0007559 242.6037 117.4433 15.26990347 30418
1 26635U 00080A   21013.46269075 0.00000000  00000-0  00000-0 0    09
2 26635   9.2857  29.8038 0014383 186.3086 173.6859  1.00273100    09
1 34810U 09020A   26118.58802400 0.00000000  00000-0  00000-0 0    05
2 34810   3.0809  80.0043 0003222 250.4250 109.5484  1.00270000    01
1 40614U 15022B   25359.93496764 0.00000000  00000-0  00000-0 0    00
2 40614   0.0160 108.2839 0003453 352.8976   7.0980  1.00270000    04
